NUSAT-1 (FRESCO)        
1 41557U 16033B   22021.49805258  .00008136  00000+0  27229-3 0  9995
2 41557  97.3912 119.4137 0012263 174.0327 314.6626 15.31157940314876
BEESAT-4                
1 41619U 16040W   22021.38857403  .00005303  00000+0  20084-3 0  9994
2 41619  97.2405  76.2076 0008538 281.6948  78.3333 15.27297599298259
CAS-2T & KS-1Q          
1 41847U 16066G   22021.43384299  .00000371  00000+0  67037-4 0  9999
2 41847  98.5729  86.1421 0363656 289.4984  66.7264 14.38329816273212
NAYIF-1 (EO-88)         
1 42017U 17008BX  22021.16265323  .00006139  00000+0  21246-3 0  9991
2 42017  97.2903  89.7860 0006975  62.8564 297.3388 15.30213912274529
ZHUHAI-1 02 (CAS-4B)    
1 42759U 17034B   22021.59680841  .00002564  00000+0  16494-3 0  9993
2 42759  43.0183  61.4008 0006763  81.6593  55.3282 15.10758227254139
ZHUHAI-1 01 (CAS-4A)    
1 42761U 17034D   22021.51071248  .00002753  00000+0  17573-3 0  9992
2 42761  43.0185  60.7711 0006993  86.3247  59.6675 15.10846626254123
MAX VALIER SAT          
1 42778U 17036P   22021.54331636  .00003395  00000+0  13970-3 0  9995
2 42778  97.2276  67.7725 0012998 122.3372 237.9126 15.24720714254505
RADFXSAT (FOX-1B)       
1 43017U 17073E   22021.26385082  .00003003  00000+0  23444-3 0  9999
2 43017  97.6912 281.4525 0251626 309.5577  48.3643 14.80222461225339
FOX-1D (AO-92)          
1 43137U 18004AC  22021.19384357  .00004316  00000+0  16748-3 0  9990
2 43137  97.3857  97.8988 0008954 153.8604 206.3088 15.26603218223863
DIWATA-2B               
1 43678U 18084H   22021.44406589  .00000385  00000+0  43881-4 0  9999
2 43678  97.9481 153.2390 0011146  55.0781 305.1523 14.91885492175935
ES'HAIL 2               
1 43700U 18090A   22021.54218153  .00000155  00000+0  00000+0 0  9997
2 43700   0.0131  86.2461 0002258 250.1475   5.4435  1.00272539 11551
FOX-1CLIFF (AO-95)      
1 43770U 18099N   22021.44259060  .00000971  00000+0  92186-4 0  9991
2 43770  97.6409  91.5564 0015409  52.1155 308.1457 14.95688490171030
ITASAT 1                
1 43786U 18099AE  22021.18814167  .00001122  00000+0  10506-3 0  9998
2 43786  97.6431  92.1364 0015912  46.2894 313.9642 14.95932320171034
JY1SAT (JO-97)          
1 43803U 18099AX  22021.51279498  .00001108  00000+0  10301-3 0  9994
2 43803  97.6393  92.1904 0015778  44.4151 315.8333 14.96258227171099
UWE-4                   
1 43880U 18111E   22021.61616099  .00001859  00000+0  16506-3 0  9993
2 43880  97.6780 290.5076 0013749  93.1753 267.1042 14.97287179167723
NEXUS (FO-99)           
1 43937U 19003F   22021.55775437  .00004980  00000+0  18755-3 0  9998
2 43937  97.1505  60.8447 0021041 321.7984  38.1764 15.27335336167535
PSAT2 (NO-104)          
1 44354U 19036R   22021.52925639  .00029234  00000+0  34185-3 0  9990
2 44354  28.5260 103.6390 0289494 135.8239 226.5859 15.23221738142147
BRICSAT2 (NO-103)       
1 44355U 19036S   22021.28142102  .00119689 -31846-5  83512-3 0  9991
2 44355  28.5257  11.4147 0175697 285.4514  72.6748 15.54720878143047
JAISAT-1                
1 44419U 19038F   22021.37940578  .00004302  00000+0  23372-3 0  9991
2 44419  97.6188 350.7850 0018669 282.1011  77.8129 15.14913406140773
DUCHIFAT-3              
1 44854U 19089C   22020.97747887  .00002471  00000+0  20114-3 0  9999
2 44854  36.9651 253.8507 0006684  94.8186 265.3293 15.00004141115774
CAS-6 (TO-108)          
1 44881U 19093C   22021.48848646  .00000355  00000+0  51902-4 0  9995
2 44881  97.9075 102.7476 0014028 308.6300  51.3662 14.81546407113015
RS-44 & BREEZE-KM R/B   
1 44909U 19096E   22021.52082404  .00000023  00000+0  56614-4 0  9993
2 44909  82.5242 327.9107 0216568 303.4905  54.5664 12.79712051 96710
ORBITAL FACTORY 2 (OF-2)
1 45113U 19071C   22021.35660732  .00009044  00000+0  24223-3 0  9993
2 45113  51.6420  59.0806 0011313   4.8755 355.2337 15.38715238110687
HUSKYSAT-1 (HO-107)     
1 45119U 19071J   22021.37775739  .00008780  00000+0  23719-3 0  9990
2 45119  51.6404  58.4576 0010723   1.7906 358.3114 15.38493959110680
BY70-2                  
1 45857U 20042B   22021.45674454  .00004199  00000+0  58951-3 0  9996
2 45857  97.9695  99.8723 0010258 224.5672 135.4714 14.77928436 83735
SALSAT                  
1 46495U 20068K   22021.54125426  .00001267  00000+0  96382-4 0  9997
2 46495  97.7141 323.0194 0018857  57.0443 303.2586 15.03801018 72107
BY70-3                  
1 46839U 20079N   22021.48418319  .00012358  00000+0  35113-3 0  9997
2 46839  97.2196  96.0557 0007421 131.8654 354.2212 15.36284022 67645
RADFXSAT-2 (AO-109)     
1 47311U 21002C   22021.57127097  .00004095  00000+0  18346-3 0  9998
2 47311  60.6844 194.0573 0027169 161.7937 198.4129 15.22863281 56074
UVSQ-SAT                
1 47438U 21006AB  22021.42902109  .00002685  00000+0  15131-3 0  9993
2 47438  97.4597  83.4926 0013936  68.2038 292.0675 15.13965565 55029
DIY-1 (ARDUIQUBE)       
1 47963U 21022AH  22021.53700049  .00006959  00000+0  44073-3 0  9990
2 47963  97.5447 285.0218 0017139 281.3274  78.6029 15.09157796 44764
XW-3 (CAS-9)            
1 50466U 21131B   22021.47294023  .00000053  00000+0  32098-4 0  9990
2 50466  98.5961  98.7226 0004013 211.5417 148.5534 14.38437008  3780
